LEMUR-2-DEMBITZ         
1 42842U 17042T   26068.47492167  .00020231  00000+0  76561-3 0  9991
2 42842  97.3807 250.9241 0006961  17.1421 343.0051 15.26947128473114
STARLINK-35939          
1 66584U 25268AD  26068.09829599  .00037067  00000+0  13506-2 0  9994
2 66584  43.0045 350.0257 0001503 267.1798  92.8881 15.27559241 17878
